SBCT 260000Z 11007KT 9999 FEW006 SCT017 08/07 Q1024
SBCT 252300Z 12007KT 9999 FEW005 08/07 Q1023
SBCT 252200Z 08005KT 9999 FEW020 10/07 Q1023
SBCT 252100Z 09007KT 9999 FEW020 12/07 Q1022
SBCT 252000Z 11007KT 9999 SCT030 SCT060 13/07 Q1022
SBCT 251900Z 09006KT 9999 BKN030 14/06 Q1022
SBCT 251800Z 11005KT 9999 BKN030 14/06 Q1022
SBCT 251700Z 12008KT 9999 BKN030 15/07 Q1022
SBCT 251600Z 13008KT 9999 BKN030 14/06 Q1023
SBCT 251500Z 19006KT 9999 BKN030 14/06 Q1023
SBCT 251400Z 19007KT 9999 BKN030 13/05 Q1024
SBCT 251300Z 19011KT 9999 BKN030 12/06 Q1023
SBCT 251200Z 21008KT 9999 BKN030 10/05 Q1023
SBCT 251100Z 22006KT 9999 FEW016 BKN030 08/05 Q1023
SBCT 251000Z 24006KT 9999 FEW015 BKN030 06/04 Q1022
SBCT 250900Z 04003KT 9999 FEW015 OVC030 06/04 Q1021
SBCT 250800Z 24003KT 9999 BKN025 05/03 Q1020
SBCT 250700Z 24007KT 9999 BKN025 05/03 Q1020
SBCT 250600Z 24008KT 9999 BKN025 04/02 Q1020
SBCT 250500Z 24003KT CAVOK 04/02 Q1020
SBCT 250200Z 24006KT CAVOK 06/00 Q1021
SBCT 250100Z 24011KT CAVOK 07/00 Q1021
SBCT 250000Z 23013KT CAVOK 08/M01 Q1020
SBCT 242300Z 24010KT CAVOK 09/01 Q1020
SBCT 242200Z 25012KT 9999 FEW045 11/02 Q1019
SBCT 241900Z 27013KT 9999 BKN040 16/06 Q1016
SBCT 241800Z 26016KT 9999 BKN030 16/07 Q1016
SBCT 241700Z 25015KT 9999 BKN021 15/09 Q1016
SBCT 241600Z 23013KT 9999 OVC011 12/10 Q1018
SBCT 241500Z 26010KT 9999 BKN007 OVC011 12/11 Q1018
SBCT 241400Z 24007KT 9999 BKN011 OVC015 13/11 Q1019 REDZ
SBCT 241300Z 27007KT 9999 BKN009 OVC019 13/11 Q1019 REDZ
SBCT 241200Z 24008KT 4000 -DZ BKN008 OVC015 12/11 Q1019
SBCT 241100Z 24009KT 8000 -DZ BKN008 OVC025 13/11 Q1020
SBCT 241000Z 26008KT 9999 SCT009 BKN025 OVC050 13/11 Q1019
SBCT 240900Z 27005KT 9999 FEW008 BKN035 OVC060 13/12 Q1019
SBCT 240800Z 27006KT 9999 BKN035 13/12 Q1018
SBCT 240700Z 24005KT 9999 BKN040 13/12 Q1018
SBCT 240600Z 27004KT 8000 BKN035 13/12 Q1018
SBCT 240500Z 24003KT 6000 -RA BKN040 14/12 Q1019
SBCT 240400Z 30003KT 9999 BKN040 14/13 Q1020
SBCT 240300Z 00000KT 9999 FEW013 BKN060 14/13 Q1020
SBCT 240200Z 30003KT 9999 FEW013 BKN060 14/13 Q1021
SBCT 240100Z 24005KT 9999 SCT013 BKN060 15/13 Q1020
SBCT 240000Z 24005KT 9999 SCT010 BKN070 15/14 Q1020
SBCT 232300Z 24004KT 9999 BKN017 BKN100 16/14 Q1019
SBCT 232200Z 27004KT CAVOK 16/14 Q1019
SBCT 232100Z 30003KT 9999 FEW015 BKN083 17/14 Q1019
SBCT 232000Z 28005KT 9999 SCT017 BKN100 17/14 Q1018
SBCT 231900Z 32006KT 9999 SCT023 OVC100 17/14 Q1019
SBCT 231800Z 25007KT 9999 OVC013 16/14 Q1018
SBCT 231700Z 27006KT 8000 OVC010 16/14 Q1019
SBCT 231600Z 22010KT 4000 BR OVC009 16/14 Q1019
SBCT 231500Z 25005KT 4000 BR BKN007 SCT009 BKN100 16/15 Q1020
SBCT 231415Z 27006KT 3500 BR SCT004 OVC006 15/14 Q1021
SBCT 231400Z 24007KT 3000 BR BKN004 OVC006 15/14 Q1021
SBCT 231300Z 24009KT 2500 BR BKN004 OVC006 15/14 Q1021
SBCT 231200Z 28004KT 2500 BR BKN003 OVC005 14/14 Q1020
SBCT 231100Z 23003KT 2200 BR FEW001 BKN002 OVC004 14/13 Q1019
SBCT 231045Z 21006KT 2000 BR SCT001 OVC002 13/13 Q1019
SBCT 231000Z 04002KT 0800 R15/0800 R33/0800 FG BKN001 OVC002 13/13 Q1018
SBCT 230900Z 00000KT 3000 BR OVC003 13/13 Q1018
SBCT 230800Z 20005KT 2500 BCFG BKN002 OVC004 13/13 Q1018
SBCT 230700Z 23004KT 4000 BR BKN004 BKN006 13/13 Q1017
SBCT 230600Z 29002KT 9999 BKN006 BKN030 13/13 Q1018
SBCT 230500Z 00000KT 9999 SCT004 BKN080 13/13 Q1018
SBCT 230400Z 05009KT 8000 -RA SCT004 BKN080 13/13 Q1018
SBCT 230300Z 03008KT 8000 -RA BKN004 OVC080 13/13 Q1019
SBCT 230200Z 01004KT 8000 SCT013 OVC080 13/13 Q1020
SBCT 230100Z 00000KT 8000 -RA SCT013 OVC070 13/13 Q1019
SBCT 240000Z 24005KT 9999 SCT010 BKN070 15/14 Q1020
SBCT 222300Z 12006KT 8000 RA BKN005 OVC070 13/13 Q1019 RETS
SBCT 222200Z 19011KT 4000 TSRA SCT004 BKN007 FEW030CB 13/13 Q1019
SBCT 222100Z 15006KT 4000 RA SCT004 BKN005 OVC040 14/14 Q1018
SBCT 222000Z 14009KT 9999 SCT004 OVC005 14/14 Q1016
SBCT 221900Z 10010KT 9999 OVC006 15/14 Q1015
SBCT 221800Z 07007KT 9999 SCT004 BKN009 BKN040 16/16 Q1014
SBCT 221700Z 10008KT 8000 SCT004 BKN008 OVC060 15/15 Q1016
SBCT 221600Z 11009KT 6000 -RA SCT004 BKN009 OVC050 15/15 Q1017
SBCT 221500Z 09004KT 5000 -RA SCT004 BKN013 OVC035 14/14 Q1017 RETS
SBCT 221400Z 18004KT 4000 -TSRA SCT004 BKN013 FEW035CB 14/14 Q1018
SBCT 221300Z 24008KT 2500 TSRA BKN004 BKN013 FEW035CB 14/14 Q1019
SBCT 221215Z 24008G21KT 3000 -TSRA BKN004 BKN013 FEW035CB 15/15 Q1018
SBCT 221200Z 06008KT 9999 BKN004 OVC013 15/15 Q1015
SBCT 221100Z 09007KT 9999 BKN004 OVC013 14/14 Q1015
SBCT 221000Z 09009KT 9999 BKN004 OVC090 13/13 Q1015 RETS
SBCT 220900Z 08011KT 7000 -TSRA BKN004 FEW035CB OVC090 13/13 Q1015
SBCT 220800Z 11004KT 6000 OVC003 13/13 Q1014
SBCT 220700Z 14007KT 3000 BCFG BR OVC004 13/13 Q1014 RETS
SBCT 220600Z 10004KT 9999 -TSRA BKN004 FEW030CB OVC047 14/14 Q1014
SBCT 220500Z 09009KT 9999 -TSRA BKN004 FEW030CB OVC047 14/14 Q1015 RERA
SBCT 220400Z 10010KT 3000 TSRA BKN004 FEW030CB OVC047 14/14 Q1016
SBCT 220300Z 09015KT 2000 -TSRA BKN002 FEW030CB OVC047 14/14 Q1016
SBCT 220200Z 11007KT 9999 -RA BKN004 OVC040 15/15 Q1015 RETS
SBCT 220100Z 12009KT 9999 -TSRA BKN003 FEW030CB OVC040 15/15 Q1015
SBCT 220045Z 09008KT 9000 -TSRA BKN003 FEW030CB OVC040 15/15 Q1015
SBCT 220000Z 08008KT 9999 OVC003 15/15 Q1014 RETS
SBCT 212320Z 15010KT 1400 R15/1400 R33/1400 TSRA BR BKN003 FEW0 25CB OVC050 15/15 Q1014
SBCT 212300Z 09007KT 8000 -TSRA BKN003 FEW025CB OVC050 15/15 Q1014
SBCT 212200Z 17011KT 9999 -TSRA BKN003 FEW030CB 17/17 Q1014